OBJECT_NAME,OBJECT_ID,EPOCH,MEAN_MOTION,ECCENTRICITY,INCLINATION,RA_OF_ASC_NODE,ARG_OF_PERICENTER,MEAN_ANOMALY,EPHEMERIS_TYPE,CLASSIFICATION_TYPE,NORAD_CAT_ID,ELEMENT_SET_NO,REV_AT_EPOCH,BSTAR,MEAN_MOTION_DOT,MEAN_MOTION_DDOT
SAUDISAT 1C (SO-50),2002-058C,2026-07-06T02:29:05.783424,14.83086846,.0074778,64.5520,70.4578,258.9395,100.3295,0,U,27607,999,26726,.13138747E-3,.968E-5,0
SAUDISAT 2,2004-025F,2026-07-05T23:41:29.072256,14.56694905,.00236157,98.5513,187.4553,237.5288,122.3626,0,U,28371,999,16848,.75235954E-4,.287E-5,0
SAUDISAT 3,2007-012B,2026-07-05T19:45:27.418464,14.71436772,.00149651,98.1462,137.2369,163.1330,197.0377,0,U,31118,999,3048,.59232686E-4,.316E-5,0
PISAT,2016-059B,2026-07-05T22:38:59.011584,14.69018491,.00298996,97.8184,186.5909,143.1844,217.1423,0,U,41784,999,52249,.19527222E-3,.1106E-4,0
FLYING LAPTOP,2017-042G,2026-07-06T07:34:18.977088,15.01272389,.00199765,97.4782,342.1225,60.6692,299.6525,0,U,42831,999,48932,.21638834E-3,.2735E-4,0
SALSAT,2020-068K,2026-07-05T23:33:58.355424,15.30081867,.00083275,97.8857,191.1942,228.1198,131.9331,0,U,46495,999,31823,.29469816E-3,.8505E-4,0
